start=new Date('2022-06-14T00:00:00.000Z').valueOf();
sats=[{"CLASSIFICATION_TYPE":"U","ECCENTRICITY":"0.00024410","MEAN_ANOMALY":"338.6835","PERIAPSIS":"438.025","EPOCH":"2022-06-13T13:48:57.080160","TLE_LINE1":"1 46745U 20074G   22164.57566065  .00003026  00000-0  78941-4 0  9998","RCS_SIZE":"LARGE","RA_OF_ASC_NODE":"276.5732","APOAPSIS":"441.353","OBJECT_NAME":"STARLINK-1898","GP_ID":"206058215","MEAN_ELEMENT_THEORY":"SGP4","BSTAR":"0.00007894100000","CENTER_NAME":"EARTH","MEAN_MOTION":"15.42176575","REV_AT_EPOCH":"9167","ARG_OF_PERICENTER":"21.4271","PERIOD":"93.375","TIME_SYSTEM":"UTC","MEAN_MOTION_DOT":"0.00003026","LAUNCH_DATE":"2020-10-24","OBJECT_ID":"2020-074G","INCLINATION":"53.0531","MEAN_MOTION_DDOT":"0.0000000000000","NORAD_CAT_ID":"46745","FILE":"3494620","SEMIMAJOR_AXIS":"6817.824","COUNTRY_CODE":"US","TLE_LINE2":"2 46745  53.0531 276.5732 0002441  21.4271 338.6835 15.42176575 91677","OBJECT_TYPE":"PAYLOAD","ELEMENT_SET_NO":"999","DECAY_DATE":null,"REF_FRAME":"TEME","SITE":"AFETR","EPHEMERIS_TYPE":"0"},{"MEAN_ANOMALY":"307.2587","PERIAPSIS":"546.260","CLASSIFICATION_TYPE":"U","ECCENTRICITY":"0.00013530","APOAPSIS":"548.134","OBJECT_NAME":"STARLINK-1905","TLE_LINE1":"1 46746U 20074H   22164.54037909  .00000540  00000-0  55141-4 0  9991","RCS_SIZE":"LARGE","EPOCH":"2022-06-13T12:58:08.753376","RA_OF_ASC_NODE":"330.0208","CENTER_NAME":"EARTH","MEAN_MOTION":"15.06405534","MEAN_ELEMENT_THEORY":"SGP4","GP_ID":"206058965","BSTAR":"0.00005514100000","REV_AT_EPOCH":"9091","ARG_OF_PERICENTER":"52.8526","LAUNCH_DATE":"2020-10-24","PERIOD":"95.592","MEAN_MOTION_DOT":"0.00000540","TIME_SYSTEM":"UTC","SEMIMAJOR_AXIS":"6925.332","NORAD_CAT_ID":"46746","FILE":"3494620","MEAN_MOTION_DDOT":"0.0000000000000","OBJECT_ID":"2020-074H","INCLINATION":"53.0555","ELEMENT_SET_NO":"999","OBJECT_TYPE":"PAYLOAD","TLE_LINE2":"2 46746  53.0555 330.0208 0001353  52.8526 307.2587 15.06405534 90912","COUNTRY_CODE":"US","EPHEMERIS_TYPE":"0","SITE":"AFETR","DECAY_DATE":null,"REF_FRAME":"TEME"},{"COUNTRY_CODE":"US","ELEMENT_SET_NO":"999","TLE_LINE2":"2 46747  53.0552 328.9123 0001255  67.4806 292.6316 15.06410897 90977","OBJECT_TYPE":"PAYLOAD","REF_FRAME":"TEME","DECAY_DATE":null,"EPHEMERIS_TYPE":"0","SITE":"AFETR","MEAN_MOTION_DOT":"0.00004135","TIME_SYSTEM":"UTC","PERIOD":"95.591","LAUNCH_DATE":"2020-10-24","MEAN_MOTION_DDOT":"0.0000000000000","INCLINATION":"53.0552","OBJECT_ID":"2020-074J","SEMIMAJOR_AXIS":"6925.315","NORAD_CAT_ID":"46747","FILE":"3494809","BSTAR":"0.00029625000000","MEAN_ELEMENT_THEORY":"SGP4","GP_ID":"206066021","MEAN_MOTION":"15.06410897","CENTER_NAME":"EARTH","REV_AT_EPOCH":"9097","ARG_OF_PERICENTER":"67.4806","ECCENTRICITY":"0.00012550","CLASSIFICATION_TYPE":"U","MEAN_ANOMALY":"292.6316","PERIAPSIS":"546.311","RA_OF_ASC_NODE":"328.9123","TLE_LINE1":"1 46747U 20074J   22164.78733434  .00004135  00000-0  29625-3 0  9995","RCS_SIZE":"LARGE","EPOCH":"2022-06-13T18:53:45.686976","OBJECT_NAME":"STARLINK-1908","APOAPSIS":"548.049"},{"ARG_OF_PERICENTER":"86.1746","REV_AT_EPOCH":"9096","MEAN_MOTION":"15.06408984","CENTER_NAME":"EARTH","BSTAR":"0.00015537000000","MEAN_ELEMENT_THEORY":"SGP4","GP_ID":"206068049","OBJECT_NAME":"STARLINK-1910","APOAPSIS":"548.123","RA_OF_ASC_NODE":"329.1794","RCS_SIZE":"LARGE","TLE_LINE1":"1 46748U 20074K   22164.72835444  .00002034  00000-0  15537-3 0  9997","EPOCH":"2022-06-13T17:28:49.823616","PERIAPSIS":"546.249","MEAN_ANOMALY":"273.9397","ECCENTRICITY":"0.00013530","CLASSIFICATION_TYPE":"U","EPHEMERIS_TYPE":"0","SITE":"AFETR","REF_FRAME":"TEME","DECAY_DATE":null,"ELEMENT_SET_NO":"999","OBJECT_TYPE":"PAYLOAD","TLE_LINE2":"2 46748  53.0547 329.1794 0001353  86.1746 273.9397 15.06408984 90963","COUNTRY_CODE":"US","SEMIMAJOR_AXIS":"6925.321","NORAD_CAT_ID":"46748","FILE":"3494879","MEAN_MOTION_DDOT":"0.0000000000000","INCLINATION":"53.0547","OBJECT_ID":"2020-074K","LAUNCH_DATE":"2020-10-24","MEAN_MOTION_DOT":"0.00002034","TIME_SYSTEM":"UTC","PERIOD":"95.592"},{"CENTER_NAME":"EARTH","MEAN_MOTION":"15.06410697","GP_ID":"206068076","MEAN_ELEMENT_THEORY":"SGP4","BSTAR":"0.00018294000000","REV_AT_EPOCH":"9096","ARG_OF_PERICENTER":"72.1925","MEAN_ANOMALY":"287.9215","PERIAPSIS":"546.220","CLASSIFICATION_TYPE":"U","ECCENTRICITY":"0.00013880","APOAPSIS":"548.142","OBJECT_NAME":"STARLINK-1911","EPOCH":"2022-06-13T17:39:26.787744","TLE_LINE1":"1 46749U 20074L   22164.73572671  .00002445  00000-0  18294-3 0  9998","RCS_SIZE":"LARGE","RA_OF_ASC_NODE":"329.1479","TLE_LINE2":"2 46749  53.0534 329.1479 0001388  72.1925 287.9215 15.06410697 90960","OBJECT_TYPE":"PAYLOAD","ELEMENT_SET_NO":"999","COUNTRY_CODE":"US","SITE":"AFETR","EPHEMERIS_TYPE":"0","DECAY_DATE":null,"REF_FRAME":"TEME","LAUNCH_DATE":"2020-10-24","PERIOD":"95.591","TIME_SYSTEM":"UTC","MEAN_MOTION_DOT":"0.00002445","NORAD_CAT_ID":"46749","FILE":"3494880","SEMIMAJOR_AXIS":"6925.316","INCLINATION":"53.0534","OBJECT_ID":"2020-074L","MEAN_MOTION_DDOT":"0.0000000000000"},{"SITE":"AFETR","EPHEMERIS_TYPE":"0","DECAY_DATE":null,"REF_FRAME":"TEME","TLE_LINE2":"2 46751  53.0561 328.8595 0001388  87.9451 272.1697 15.06400174 90965","OBJECT_TYPE":"PAYLOAD","ELEMENT_SET_NO":"999","COUNTRY_CODE":"US","FILE":"3494899","NORAD_CAT_ID":"46751","SEMIMAJOR_AXIS":"6925.348","OBJECT_ID":"2020-074N","INCLINATION":"53.0561","MEAN_MOTION_DDOT":"0.0000000000000","LAUNCH_DATE":"2020-10-24","PERIOD":"95.592","TIME_SYSTEM":"UTC","MEAN_MOTION_DOT":"0.00000769","ARG_OF_PERICENTER":"87.9451","REV_AT_EPOCH":"9096","CENTER_NAME":"EARTH","MEAN_MOTION":"15.06400174","MEAN_ELEMENT_THEORY":"SGP4","GP_ID":"206068190","BSTAR":"0.00007051100000","APOAPSIS":"548.174","OBJECT_NAME":"STARLINK-1920","EPOCH":"2022-06-13T19:09:41.309856","TLE_LINE1":"1 46751U 20074N   22164.79839479  .00000769  00000-0  70511-4 0  9997","RCS_SIZE":"LARGE","RA_OF_ASC_NODE":"328.8595","PERIAPSIS":"546.252","MEAN_ANOMALY":"272.1697","CLASSIFICATION_TYPE":"U","ECCENTRICITY":"0.00013880"},{"TIME_SYSTEM":"UTC","MEAN_MOTION_DOT":"0.00000693","PERIOD":"95.591","LAUNCH_DATE":"2020-10-24","INCLINATION":"53.0549","OBJECT_ID":"2020-074P","MEAN_MOTION_DDOT":"0.0000000000000","NORAD_CAT_ID":"46752","FILE":"3494899","SEMIMAJOR_AXIS":"6925.311","COUNTRY_CODE":"US","TLE_LINE2":"2 46752  53.0549 329.0904 0001662  63.2857 296.8302 15.06412317 90958","OBJECT_TYPE":"PAYLOAD","ELEMENT_SET_NO":"999","REF_FRAME":"TEME","DECAY_DATE":null,"SITE":"AFETR","EPHEMERIS_TYPE":"0","ECCENTRICITY":"0.00016620","CLASSIFICATION_TYPE":"U","PERIAPSIS":"546.025","MEAN_ANOMALY":"296.8302","RA_OF_ASC_NODE":"329.0904","EPOCH":"2022-06-13T17:50:03.523776","TLE_LINE1":"1 46752U 20074P   22164.74309634  .00000693  00000-0  65421-4 0  9998","RCS_SIZE":"LARGE","OBJECT_NAME":"STARLINK-1921","APOAPSIS":"548.327","BSTAR":"0.00006542100000","MEAN_ELEMENT_THEORY":"SGP4","GP_ID":"206068600","MEAN_MOTION":"15.06412317","CENTER_NAME":"EARTH","REV_AT_EPOCH":"9095","ARG_OF_PERICENTER":"63.2857"},{"COUNTRY_CODE":"US","OBJECT_TYPE":"PAYLOAD","TLE_LINE2":"2 46753  53.0556 330.4396 0001674  71.8684 288.2487 15.06404348 90903","ELEMENT_SET_NO":"999","REF_FRAME":"TEME","DECAY_DATE":null,"SITE":"AFETR","EPHEMERIS_TYPE":"0","TIME_SYSTEM":"UTC","MEAN_MOTION_DOT":"0.00001492","PERIOD":"95.592","LAUNCH_DATE":"2020-10-24","INCLINATION":"53.0556","OBJECT_ID":"2020-074Q","MEAN_MOTION_DDOT":"0.0000000000000","FILE":"3494620","NORAD_CAT_ID":"46753","SEMIMAJOR_AXIS":"6925.335","BSTAR":"0.00011903000000","GP_ID":"206059468","MEAN_ELEMENT_THEORY":"SGP4","MEAN_MOTION":"15.06404348","CENTER_NAME":"EARTH","ARG_OF_PERICENTER":"71.8684","REV_AT_EPOCH":"9090","ECCENTRICITY":"0.00016740","CLASSIFICATION_TYPE":"U","PERIAPSIS":"546.041","MEAN_ANOMALY":"288.2487","RA_OF_ASC_NODE":"330.4396","EPOCH":"2022-06-13T10:40:08.583456","TLE_LINE1":"1 46753U 20074Q   22164.44454379  .00001492  00000-0  11903-3 0  9996","RCS_SIZE":"LARGE","OBJECT_NAME":"STARLINK-1922","APOAPSIS":"548.360"},{"FILE":"3494620","NORAD_CAT_ID":"46754","SEMIMAJOR_AXIS":"6925.316","OBJECT_ID":"2020-074R","INCLINATION":"53.0534","MEAN_MOTION_DDOT":"0.0000000000000","LAUNCH_DATE":"2020-10-24","TIME_SYSTEM":"UTC","MEAN_MOTION_DOT":"0.00007105","PERIOD":"95.591","SITE":"AFETR","EPHEMERIS_TYPE":"0","REF_FRAME":"TEME","DECAY_DATE":null,"TLE_LINE2":"2 46754  53.0534 330.4003 0001795  85.2062 274.9132 15.06410749 90909","OBJECT_TYPE":"PAYLOAD","ELEMENT_SET_NO":"999","COUNTRY_CODE":"US","OBJECT_NAME":"STARLINK-1923","APOAPSIS":"548.424","RA_OF_ASC_NODE":"330.4003","EPOCH":"2022-06-13T10:50:45.964896","TLE_LINE1":"1 46754U 20074R   22164.45192089  .00007105  00000-0  49527-3 0  9995","RCS_SIZE":"LARGE","PERIAPSIS":"545.938","MEAN_ANOMALY":"274.9132","ECCENTRICITY":"0.00017950","CLASSIFICATION_TYPE":"U","REV_AT_EPOCH":"9090","ARG_OF_PERICENTER":"85.2062","MEAN_MOTION":"15.06410749","CENTER_NAME":"EARTH","BSTAR":"0.00049527000000","MEAN_ELEMENT_THEORY":"SGP4","GP_ID":"206058216"},{"MEAN_ANOMALY":"300.3036","PERIAPSIS":"546.051","CLASSIFICATION_TYPE":"U","ECCENTRICITY":"0.00016790","APOAPSIS":"548.376","OBJECT_NAME":"STARLINK-1924","EPOCH":"2022-06-13T04:35:53.954880","TLE_LINE1":"1 46755U 20074S   22164.19159670  .00001942  00000-0  14921-3 0  9999","RCS_SIZE":"LARGE","RA_OF_ASC_NODE":"336.5716","CENTER_NAME":"EARTH","MEAN_MOTION":"15.06399954","MEAN_ELEMENT_THEORY":"SGP4","GP_ID":"206058966","BSTAR":"0.00014921000000","ARG_OF_PERICENTER":"59.8120","REV_AT_EPOCH":"9079","LAUNCH_DATE":"2020-10-24","PERIOD":"95.592","TIME_SYSTEM":"UTC","MEAN_MOTION_DOT":"0.00001942","FILE":"3494620","NORAD_CAT_ID":"46755","SEMIMAJOR_AXIS":"6925.349","OBJECT_ID":"2020-074S","INCLINATION":"53.0555","MEAN_MOTION_DDOT":"0.0000000000000","OBJECT_TYPE":"PAYLOAD","TLE_LINE2":"2 46755  53.0555 336.5716 0001679  59.8120 300.3036 15.06399954 90792","ELEMENT_SET_NO":"999","COUNTRY_CODE":"US","SITE":"AFETR","EPHEMERIS_TYPE":"0","DECAY_DATE":null,"REF_FRAME":"TEME"}];
